QIANFAN-49              
1 62250U 24232P   25317.88098250  .00000282  00000+0  41828-3 0  9993
2 62250  89.0046  44.1418 0012335 277.1871  82.7878 13.50975267 63940
QIANFAN-50              
1 62251U 24232Q   25317.90566725  .00000310  00000+0  46130-3 0  9997
2 62251  89.0051  44.1458 0013982 278.7822  81.1746 13.50975889 63973
QIANFAN-51              
1 62252U 24232R   25317.96326691  .00000287  00000+0  42638-3 0  9992
2 62252  89.0045  44.1357 0011459 282.7443  77.2427 13.50973684 63979
QIANFAN-52              
1 62253U 24232S   25317.91802600  .00000285  00000+0  42345-3 0  9990
2 62253  89.0042  44.0150 0013494 274.1562  85.8047 13.50974755 64058
QIANFAN-53              
1 62254U 24232T   25317.89747166  .00000289  00000+0  42925-3 0  9991
2 62254  89.0049  44.1193 0012373 275.3194  84.6545 13.50985879 64018
QIANFAN-54              
1 62255U 24232U   25317.93860780  .00000293  00000+0  43592-3 0  9991
2 62255  89.0040  43.7963 0001084  22.7883 337.3316 13.50974835 95520
QIANFAN-55              
1 62785U 25016A   25317.89084721  .00000191  00000+0  27709-3 0  9997
2 62785  88.9755 106.1865 0018834  74.1511 286.1715 13.50979436 43297
QIANFAN-56              
1 62786U 25016B   25317.90714243  .00000177  00000+0  25464-3 0  9999
2 62786  88.9729 106.0291 0017504  76.4924 283.8177 13.50980152 43346
